{
  "type": "FeatureCollection",
  "features": [
    {
      "type": "Feature",
      "properties": {
        "norad_id": 34852,
        "name": "COSMOS 2251 DEB",
        "group": "cosmos-2251-debris",
        "lat": 49.34371702371315,
        "lon": -85.76855933443801,
        "alt_km": 756.9092880021472,
        "timestamp": "2025-12-17T04:57:44.755996+00:00",
        "meta_object_name": "COSMOS 2251 DEB",
        "meta_object_id": "1993-036ABW",
        "meta_epoch": "2025-12-16T01:59:18.966624",
        "meta_mean_motion": 14.3700768,
        "meta_eccentricity": 0.00163324,
        "meta_inclination": 74.0328,
        "meta_ra_of_asc_node": 256.8235,
        "meta_arg_of_pericenter": 359.1989,
        "meta_mean_anomaly": 0.9135,
        "meta_ephemeris_type": 0,
        "meta_classification_type": "U",
        "meta_norad_cat_id": 34852,
        "meta_element_set_no": 999,
        "meta_rev_at_epoch": 87582,
        "meta_bstar": 0.00011051411,
        "meta_mean_motion_dot": 3.02e-06,
        "meta_mean_motion_ddot": 0,
        "tle_line1": "1 34852U 93036ABW 25350.08285841  .00000302  00000+0  11051-3 0  9999",
        "tle_line2": "2 34852  74.0328 256.8235 0016332 359.1989   0.9135 14.37007680875822"
      },
      "geometry": {
        "type": "Point",
        "coordinates": [
          -85.76855933443801,
          49.34371702371315
        ]
      }
    },
    {
      "type": "Feature",
      "properties": {
        "norad_id": 34854,
        "name": "COSMOS 2251 DEB",
        "group": "cosmos-2251-debris",
        "lat": -49.485553409111795,
        "lon": -10.590808252910792,
        "alt_km": 605.5004726041543,
        "timestamp": "2025-12-17T04:57:44.756005+00:00",
        "meta_object_name": "COSMOS 2251 DEB",
        "meta_object_id": "1993-036ABY",
        "meta_epoch": "2025-12-15T17:45:50.311296",
        "meta_mean_motion": 14.76656012,
        "meta_eccentricity": 0.00661077,
        "meta_inclination": 74.0282,
        "meta_ra_of_asc_node": 152.7005,
        "meta_arg_of_pericenter": 263.7765,
        "meta_mean_anomaly": 95.5876,
        "meta_ephemeris_type": 0,
        "meta_classification_type": "U",
        "meta_norad_cat_id": 34854,
        "meta_element_set_no": 999,
        "meta_rev_at_epoch": 71926,
        "meta_bstar": 0.00049862393,
        "meta_mean_motion_dot": 3.579e-05,
        "meta_mean_motion_ddot": 0,
        "tle_line1": "1 34854U 93036ABY 25349.74016564  .00003579  00000+0  49862-3 0  9996",
        "tle_line2": "2 34854  74.0282 152.7005 0066107 263.7765  95.5876 14.76656012719268"
      },
      "geometry": {
        "type": "Point",
        "coordinates": [
          -10.590808252910792,
          -49.485553409111795
        ]
      }
    },
    {
      "type": "Feature",
      "properties": {
        "norad_id": 34856,
        "name": "COSMOS 2251 DEB",
        "group": "cosmos-2251-debris",
        "lat": 56.98484930386817,
        "lon": 101.87573091909864,
        "alt_km": 561.7226035012864,
        "timestamp": "2025-12-17T04:57:44.756014+00:00",
        "meta_object_name": "COSMOS 2251 DEB",
        "meta_object_id": "1993-036ACA",
        "meta_epoch": "2025-12-15T08:23:09.320352",
        "meta_mean_motion": 15.0621822,
        "meta_eccentricity": 0.00326007,
        "meta_inclination": 73.9961,
        "meta_ra_of_asc_node": 79.4818,
        "meta_arg_of_pericenter": 217.4103,
        "meta_mean_anomaly": 216.3401,
        "meta_ephemeris_type": 0,
        "meta_classification_type": "U",
        "meta_norad_cat_id": 34856,
        "meta_element_set_no": 999,
        "meta_rev_at_epoch": 89151,
        "meta_bstar": 0.0012135652,
        "meta_mean_motion_dot": 0.00018014,
        "meta_mean_motion_ddot": 0,
        "tle_line1": "1 34856U 93036ACA 25349.34941343  .00018014  00000+0  12136-2 0  9999",
        "tle_line2": "2 34856  73.9961  79.4818 0032600 217.4103 216.3401 15.06218220891517"
      },
      "geometry": {
        "type": "Point",
        "coordinates": [
          101.87573091909864,
          56.98484930386817
        ]
      }
    },
    {
      "type": "Feature",
      "properties": {
        "norad_id": 34857,
        "name": "COSMOS 2251 DEB",
        "group": "cosmos-2251-debris",
        "lat": 29.99401791693486,
        "lon": 107.83195029628429,
        "alt_km": 740.4289652568914,
        "timestamp": "2025-12-17T04:57:44.756024+00:00",
        "meta_object_name": "COSMOS 2251 DEB",
        "meta_object_id": "1993-036ACB",
        "meta_epoch": "2025-12-16T17:52:33.248928",
        "meta_mean_motion": 14.58934437,
        "meta_eccentricity": 0.00657144,
        "meta_inclination": 74.0159,
        "meta_ra_of_asc_node": 99.1894,
        "meta_arg_of_pericenter": 222.9586,
        "meta_mean_anomaly": 263.1461,
        "meta_ephemeris_type": 0,
        "meta_classification_type": "U",
        "meta_norad_cat_id": 34857,
        "meta_element_set_no": 999,
        "meta_rev_at_epoch": 87959,
        "meta_bstar": 0.00083210289,
        "meta_mean_motion_dot": 3.991e-05,
        "meta_mean_motion_ddot": 0,
        "tle_line1": "1 34857U 93036ACB 25350.74482927  .00003991  00000+0  83210-3 0  9994",
        "tle_line2": "2 34857  74.0159  99.1894 0065714 222.9586 263.1461 14.58934437879591"
      },
      "geometry": {
        "type": "Point",
        "coordinates": [
          107.83195029628429,
          29.99401791693486
        ]
      }
    },
    {
      "type": "Feature",
      "properties": {
        "norad_id": 34859,
        "name": "COSMOS 2251 DEB",
        "group": "cosmos-2251-debris",
        "lat": 12.48398992240846,
        "lon": 146.72667459721427,
        "alt_km": 521.8434640030873,
        "timestamp": "2025-12-17T04:57:44.756033+00:00",
        "meta_object_name": "COSMOS 2251 DEB",
        "meta_object_id": "1993-036ACD",
        "meta_epoch": "2025-12-16T09:46:42.737376",
        "meta_mean_motion": 15.15357258,
        "meta_eccentricity": 0.00019857,
        "meta_inclination": 74.0281,
        "meta_ra_of_asc_node": 332.0261,
        "meta_arg_of_pericenter": 6.7408,
        "meta_mean_anomaly": 121.3133,
        "meta_ephemeris_type": 0,
        "meta_classification_type": "U",
        "meta_norad_cat_id": 34859,
        "meta_element_set_no": 999,
        "meta_rev_at_epoch": 88414,
        "meta_bstar": 0.0033529222,
        "meta_mean_motion_dot": 0.00063788,
        "meta_mean_motion_ddot": 0,
        "tle_line1": "1 34859U 93036ACD 25350.40743909  .00063788  00000+0  33529-2 0  9996",
        "tle_line2": "2 34859  74.0281 332.0261 0001985   6.7408 121.3133 15.15357258884149"
      },
      "geometry": {
        "type": "Point",
        "coordinates": [
          146.72667459721427,
          12.48398992240846
        ]
      }
    },
    {
      "type": "Feature",
      "properties": {
        "norad_id": 34861,
        "name": "COSMOS 2251 DEB",
        "group": "cosmos-2251-debris",
        "lat": -51.18011960156938,
        "lon": -117.40924104234608,
        "alt_km": 569.5464089386396,
        "timestamp": "2025-12-17T04:57:44.756042+00:00",
        "meta_object_name": "COSMOS 2251 DEB",
        "meta_object_id": "1993-036ACF",
        "meta_epoch": "2025-12-16T04:05:31.084224",
        "meta_mean_motion": 15.0279155,
        "meta_eccentricity": 0.00073615,
        "meta_inclination": 74.0193,
        "meta_ra_of_asc_node": 43.8416,
        "meta_arg_of_pericenter": 36.4182,
        "meta_mean_anomaly": 353.7173,
        "meta_ephemeris_type": 0,
        "meta_classification_type": "U",
        "meta_norad_cat_id": 34861,
        "meta_element_set_no": 999,
        "meta_rev_at_epoch": 88144,
        "meta_bstar": 0.0016459409,
        "meta_mean_motion_dot": 0.00022073,
        "meta_mean_motion_ddot": 0,
        "tle_line1": "1 34861U 93036ACF 25350.17049866  .00022073  00000+0  16459-2 0  9999",
        "tle_line2": "2 34861  74.0193  43.8416 0007361  36.4182 353.7173 15.02791550881444"
      },
      "geometry": {
        "type": "Point",
        "coordinates": [
          -117.40924104234608,
          -51.18011960156938
        ]
      }
    },
    {
      "type": "Feature",
      "properties": {
        "norad_id": 34874,
        "name": "COSMOS 2251 DEB",
        "group": "cosmos-2251-debris",
        "lat": -19.006283910163923,
        "lon": -108.78079915108037,
        "alt_km": 787.7082809829772,
        "timestamp": "2025-12-17T04:57:44.756051+00:00",
        "meta_object_name": "COSMOS 2251 DEB",
        "meta_object_id": "1993-036ACM",
        "meta_epoch": "2025-12-15T15:57:33.247296",
        "meta_mean_motion": 14.36325201,
        "meta_eccentricity": 0.00508248,
        "meta_inclination": 74.0399,
        "meta_ra_of_asc_node": 68.3924,
        "meta_arg_of_pericenter": 92.7738,
        "meta_mean_anomaly": 57.2671,
        "meta_ephemeris_type": 0,
        "meta_classification_type": "U",
        "meta_norad_cat_id": 34874,
        "meta_element_set_no": 999,
        "meta_rev_at_epoch": 87086,
        "meta_bstar": 0.00056877807,
        "meta_mean_motion_dot": 1.663e-05,
        "meta_mean_motion_ddot": 0,
        "tle_line1": "1 34874U 93036ACM 25349.66496814  .00001663  00000+0  56878-3 0  9996",
        "tle_line2": "2 34874  74.0399  68.3924 0050824  92.7738  57.2671 14.36325201870861"
      },
      "geometry": {
        "type": "Point",
        "coordinates": [
          -108.78079915108037,
          -19.006283910163923
        ]
      }
    }
  ]
}